{
  "type": "FeatureCollection",
  "features": [
    {
      "type": "Feature",
      "properties": {
        "norad_id": 66745,
        "name": "TRANSPORTER-15 CH",
        "group": "last-30-days",
        "lat": -34.10428558006817,
        "lon": 72.38630169915274,
        "alt_km": 519.6667343567042,
        "timestamp": "2025-12-21T16:47:53.449563+00:00",
        "meta_object_name": "TRANSPORTER-15 CH",
        "meta_object_id": "2025-276CH",
        "meta_epoch": "2025-12-21T10:37:08.588064",
        "meta_mean_motion": 15.17413213,
        "meta_eccentricity": 0.0001396,
        "meta_inclination": 97.4419,
        "meta_ra_of_asc_node": 67.0553,
        "meta_arg_of_pericenter": 252.4591,
        "meta_mean_anomaly": 107.649,
        "meta_ephemeris_type": 0,
        "meta_classification_type": "U",
        "meta_norad_cat_id": 66745,
        "meta_element_set_no": 999,
        "meta_rev_at_epoch": 344,
        "meta_bstar": 0.00033002,
        "meta_mean_motion_dot": 6.533e-05,
        "meta_mean_motion_ddot": 0,
        "tle_line1": "1 66745U 25276CH  25355.44246051  .00006533  00000+0  33002-3 0  9993",
        "tle_line2": "2 66745  97.4419  67.0553 0001396 252.4591 107.6490 15.17413213  3443"
      },
      "geometry": {
        "type": "Point",
        "coordinates": [
          72.38630169915274,
          -34.10428558006817
        ]
      }
    },
    {
      "type": "Feature",
      "properties": {
        "norad_id": 66746,
        "name": "TRANSPORTER-15 CJ",
        "group": "last-30-days",
        "lat": -32.18073152071839,
        "lon": 72.02784485437711,
        "alt_km": 519.9173017173689,
        "timestamp": "2025-12-21T16:47:53.449576+00:00",
        "meta_object_name": "TRANSPORTER-15 CJ",
        "meta_object_id": "2025-276CJ",
        "meta_epoch": "2025-12-19T04:48:03.204576",
        "meta_mean_motion": 15.17416472,
        "meta_eccentricity": 9.628e-05,
        "meta_inclination": 97.4422,
        "meta_ra_of_asc_node": 64.8535,
        "meta_arg_of_pericenter": 234.0891,
        "meta_mean_anomaly": 126.0254,
        "meta_ephemeris_type": 0,
        "meta_classification_type": "U",
        "meta_norad_cat_id": 66746,
        "meta_element_set_no": 999,
        "meta_rev_at_epoch": 310,
        "meta_bstar": 0.00013979791,
        "meta_mean_motion_dot": 2.728e-05,
        "meta_mean_motion_ddot": 0,
        "tle_line1": "1 66746U 25276CJ  25353.20003709  .00002728  00000+0  13980-3 0  9992",
        "tle_line2": "2 66746  97.4422  64.8535 0000962 234.0891 126.0254 15.17416472  3106"
      },
      "geometry": {
        "type": "Point",
        "coordinates": [
          72.02784485437711,
          -32.18073152071839
        ]
      }
    },
    {
      "type": "Feature",
      "properties": {
        "norad_id": 66747,
        "name": "W-SERIES 5",
        "group": "last-30-days",
        "lat": -33.44088601087847,
        "lon": 72.265072470805,
        "alt_km": 525.7610984289813,
        "timestamp": "2025-12-21T16:47:53.449586+00:00",
        "meta_object_name": "W-SERIES 5",
        "meta_object_id": "2025-276CK",
        "meta_epoch": "2025-12-21T10:36:48.290112",
        "meta_mean_motion": 15.16535072,
        "meta_eccentricity": 0.0010664,
        "meta_inclination": 97.444,
        "meta_ra_of_asc_node": 67.0586,
        "meta_arg_of_pericenter": 94.0328,
        "meta_mean_anomaly": 266.2124,
        "meta_ephemeris_type": 0,
        "meta_classification_type": "U",
        "meta_norad_cat_id": 66747,
        "meta_element_set_no": 999,
        "meta_rev_at_epoch": 344,
        "meta_bstar": 0.038669,
        "meta_mean_motion_dot": 0.00807245,
        "meta_mean_motion_ddot": 0,
        "tle_line1": "1 66747U 25276CK  25355.44222558  .00807245  00000+0  38669-1 0  9992",
        "tle_line2": "2 66747  97.4440  67.0586 0010664  94.0328 266.2124 15.16535072  3444"
      },
      "geometry": {
        "type": "Point",
        "coordinates": [
          72.265072470805,
          -33.44088601087847
        ]
      }
    },
    {
      "type": "Feature",
      "properties": {
        "norad_id": 66748,
        "name": "TRANSPORTER-15 CL",
        "group": "last-30-days",
        "lat": 18.120107774461847,
        "lon": 64.87852461024923,
        "alt_km": 512.1774920041771,
        "timestamp": "2025-12-21T16:47:53.449597+00:00",
        "meta_object_name": "TRANSPORTER-15 CL",
        "meta_object_id": "2025-276CL",
        "meta_epoch": "2025-12-21T10:23:29.643936",
        "meta_mean_motion": 15.18432589,
        "meta_eccentricity": 0.000195,
        "meta_inclination": 97.4413,
        "meta_ra_of_asc_node": 67.0672,
        "meta_arg_of_pericenter": 228.473,
        "meta_mean_anomaly": 131.6337,
        "meta_ephemeris_type": 0,
        "meta_classification_type": "U",
        "meta_norad_cat_id": 66748,
        "meta_element_set_no": 999,
        "meta_rev_at_epoch": 344,
        "meta_bstar": 0.00077465,
        "meta_mean_motion_dot": 0.00015902,
        "meta_mean_motion_ddot": 0,
        "tle_line1": "1 66748U 25276CL  25355.43298199  .00015902  00000+0  77465-3 0  9996",
        "tle_line2": "2 66748  97.4413  67.0672 0001950 228.4730 131.6337 15.18432589  3441"
      },
      "geometry": {
        "type": "Point",
        "coordinates": [
          64.87852461024923,
          18.120107774461847
        ]
      }
    },
    {
      "type": "Feature",
      "properties": {
        "norad_id": 66749,
        "name": "TRANSPORTER-15 CM",
        "group": "last-30-days",
        "lat": -3.7362627686840524,
        "lon": 67.80682529499205,
        "alt_km": 517.0239669774573,
        "timestamp": "2025-12-21T16:47:53.449607+00:00",
        "meta_object_name": "TRANSPORTER-15 CM",
        "meta_object_id": "2025-276CM",
        "meta_epoch": "2025-12-21T10:29:09.564864",
        "meta_mean_motion": 15.17851651,
        "meta_eccentricity": 0.0001748,
        "meta_inclination": 97.4408,
        "meta_ra_of_asc_node": 67.0593,
        "meta_arg_of_pericenter": 195.9433,
        "meta_mean_anomaly": 164.1746,
        "meta_ephemeris_type": 0,
        "meta_classification_type": "U",
        "meta_norad_cat_id": 66749,
        "meta_element_set_no": 999,
        "meta_rev_at_epoch": 344,
        "meta_bstar": 0.00039844,
        "meta_mean_motion_dot": 8.003e-05,
        "meta_mean_motion_ddot": 0,
        "tle_line1": "1 66749U 25276CM  25355.43691626  .00008003  00000+0  39844-3 0  9992",
        "tle_line2": "2 66749  97.4408  67.0593 0001748 195.9433 164.1746 15.17851651  3440"
      },
      "geometry": {
        "type": "Point",
        "coordinates": [
          67.80682529499205,
          -3.7362627686840524
        ]
      }
    },
    {
      "type": "Feature",
      "properties": {
        "norad_id": 66750,
        "name": "TRANSPORTER-15 CN",
        "group": "last-30-days",
        "lat": 12.38475819472298,
        "lon": 65.69366423595243,
        "alt_km": 514.2315671936867,
        "timestamp": "2025-12-21T16:47:53.449617+00:00",
        "meta_object_name": "TRANSPORTER-15 CN",
        "meta_object_id": "2025-276CN",
        "meta_epoch": "2025-12-21T10:24:54.813600",
        "meta_mean_motion": 15.18016899,
        "meta_eccentricity": 0.0001938,
        "meta_inclination": 97.4446,
        "meta_ra_of_asc_node": 67.0774,
        "meta_arg_of_pericenter": 156.991,
        "meta_mean_anomaly": 203.1411,
        "meta_ephemeris_type": 0,
        "meta_classification_type": "U",
        "meta_norad_cat_id": 66750,
        "meta_element_set_no": 999,
        "meta_rev_at_epoch": 344,
        "meta_bstar": 0.00036426,
        "meta_mean_motion_dot": 7.345e-05,
        "meta_mean_motion_ddot": 0,
        "tle_line1": "1 66750U 25276CN  25355.43396775  .00007345  00000+0  36426-3 0  9992",
        "tle_line2": "2 66750  97.4446  67.0774 0001938 156.9910 203.1411 15.18016899  3444"
      },
      "geometry": {
        "type": "Point",
        "coordinates": [
          65.69366423595243,
          12.38475819472298
        ]
      }
    },
    {
      "type": "Feature",
      "properties": {
        "norad_id": 66751,
        "name": "ICEYE-X58",
        "group": "last-30-days",
        "lat": -5.295251809278127,
        "lon": 68.01922509549591,
        "alt_km": 517.487765131239,
        "timestamp": "2025-12-21T16:47:53.449629+00:00",
        "meta_object_name": "ICEYE-X58",
        "meta_object_id": "2025-276CP",
        "meta_epoch": "2025-12-21T10:29:33.494208",
        "meta_mean_motion": 15.17788147,
        "meta_eccentricity": 0.0002236,
        "meta_inclination": 97.442,
        "meta_ra_of_asc_node": 67.0668,
        "meta_arg_of_pericenter": 213.315,
        "meta_mean_anomaly": 146.7943,
        "meta_ephemeris_type": 0,
        "meta_classification_type": "U",
        "meta_norad_cat_id": 66751,
        "meta_element_set_no": 999,
        "meta_rev_at_epoch": 344,
        "meta_bstar": 0.0002957,
        "meta_mean_motion_dot": 5.91e-05,
        "meta_mean_motion_ddot": 0,
        "tle_line1": "1 66751U 25276CP  25355.43719322  .00005910  00000+0  29570-3 0  9998",
        "tle_line2": "2 66751  97.4420  67.0668 0002236 213.3150 146.7943 15.17788147  3448"
      },
      "geometry": {
        "type": "Point",
        "coordinates": [
          68.01922509549591,
          -5.295251809278127
        ]
      }
    }
  ]
}